ONEWEB-0512             
1 54130U 22138T   25305.55468419  .00000082  00000+0  17146-3 0  9997
2 54130  87.9228 350.2712 0001942 109.0241 251.1102 13.19725777146781
ONEWEB-0513             
1 54131U 22138U   25305.57866534  .00000064  00000+0  12529-3 0  9990
2 54131  87.9252 350.2276 0001662 116.0437 244.0867 13.20319195146681
ONEWEB-0514             
1 54132U 22138V   25305.41884865  .00000114  00000+0  25204-3 0  9991
2 54132  87.9242 350.2793 0001815  92.9063 267.2277 13.19725510146785
ONEWEB-0515             
1 54133U 22138W   25305.46971397  .00000129  00000+0  28449-3 0  9994
2 54133  87.9195 319.8363 0002476  74.6676 285.4731 13.20771640149246
ONEWEB-0516             
1 54134U 22138X   25305.39357478  .00000088  00000+0  18790-3 0  9997
2 54134  87.9228 350.3083 0002021  99.5224 260.6137 13.19726075146785
ONEWEB-0517             
1 54135U 22138Y   25305.60049123  .00000137  00000+0  31004-3 0  9995
2 54135  87.9249 350.2403 0001571  98.4421 261.6889 13.19725453146818
ONEWEB-0518             
1 54136U 22138Z   25305.16454709  .00000056  00000+0  10734-3 0  9994
2 54136  87.9231 350.3557 0001941 102.2102 257.9248 13.19724995146752
ONEWEB-0519             
1 54137U 22138AA  25305.56881831 -.00056321  00000+0 -14101+0 0  9995
2 54137  87.9247 350.2378 0001053 190.2287 169.8824 13.20001607146813
